NOAA 18                 
1 28654U 05018A   26068.82490937  .00000065  00000+0  57346-4 0  9992
2 28654  98.8155 149.9303 0015280  75.1166 285.1697 14.13710920 72278
NOAA 19                 
1 33591U 09005A   26068.80611990  .00000054  00000+0  52784-4 0  9999
2 33591  98.9606 139.5774 0012887 314.3736  45.6380 14.13456770880448
SUOMI NPP               
1 37849U 11061A   26068.81372109  .00000143  00000+0  88661-4 0  9993
2 37849  98.7869  10.4154 0000463 228.7230 131.3906 14.19543678744345
NOAA 20 (JPSS-1)        
1 43013U 17073A   26068.82839522  .00000101  00000+0  68904-4 0  9992
2 43013  98.7691   9.2142 0001226 138.0211 222.1059 14.19536116430373
