[{"OBJECT_NAME":"NOAA 18","OBJECT_ID":"2005-018A","EPOCH":"2026-03-09T19:47:52.169568","MEAN_MOTION":14.1371092,"ECCENTRICITY":0.001528,"INCLINATION":98.8155,"RA_OF_ASC_NODE":149.9303,"ARG_OF_PERICENTER":75.1166,"MEAN_ANOMALY":285.1697,"EPHEMERIS_TYPE":0,"CLASSIFICATION_TYPE":"U","NORAD_CAT_ID":28654,"ELEMENT_SET_NO":999,"REV_AT_EPOCH":7227,"BSTAR":5.7346e-5,"MEAN_MOTION_DOT":6.5e-7,"MEAN_MOTION_DDOT":0},{"OBJECT_NAME":"NOAA 19","OBJECT_ID":"2009-005A","EPOCH":"2026-03-09T19:20:48.759360","MEAN_MOTION":14.1345677,"ECCENTRICITY":0.0012887,"INCLINATION":98.9606,"RA_OF_ASC_NODE":139.5774,"ARG_OF_PERICENTER":314.3736,"MEAN_ANOMALY":45.638,"EPHEMERIS_TYPE":0,"CLASSIFICATION_TYPE":"U","NORAD_CAT_ID":33591,"ELEMENT_SET_NO":999,"REV_AT_EPOCH":88044,"BSTAR":5.2784e-5,"MEAN_MOTION_DOT":5.4e-7,"MEAN_MOTION_DDOT":0},{"OBJECT_NAME":"SUOMI NPP","OBJECT_ID":"2011-061A","EPOCH":"2026-03-09T19:31:45.502176","MEAN_MOTION":14.19543678,"ECCENTRICITY":4.63e-5,"INCLINATION":98.7869,"RA_OF_ASC_NODE":10.4154,"ARG_OF_PERICENTER":228.723,"MEAN_ANOMALY":131.3906,"EPHEMERIS_TYPE":0,"CLASSIFICATION_TYPE":"U","NORAD_CAT_ID":37849,"ELEMENT_SET_NO":999,"REV_AT_EPOCH":74434,"BSTAR":8.8661e-5,"MEAN_MOTION_DOT":1.43e-6,"MEAN_MOTION_DDOT":0},{"OBJECT_NAME":"NOAA 20 (JPSS-1)","OBJECT_ID":"2017-073A","EPOCH":"2026-03-09T19:52:53.347008","MEAN_MOTION":14.19536116,"ECCENTRICITY":0.0001226,"INCLINATION":98.7691,"RA_OF_ASC_NODE":9.2142,"ARG_OF_PERICENTER":138.0211,"MEAN_ANOMALY":222.1059,"EPHEMERIS_TYPE":0,"CLASSIFICATION_TYPE":"U","NORAD_CAT_ID":43013,"ELEMENT_SET_NO":999,"REV_AT_EPOCH":43037,"BSTAR":6.8904e-5,"MEAN_MOTION_DOT":1.01e-6,"MEAN_MOTION_DDOT":0}]
